FLOCK 4G-24             
1 62637U 25009AE  26068.72509072  .00010513  00000+0  38996-3 0  9991
2 62637  97.4061 151.5140 0001802 280.2808  79.8228 15.27784978 63732
STARLINK-34135          
1 63964U 25099N   26068.33890482  .00023699  00000+0  86768-3 0  9998
2 63964  43.0012 178.1170 0002095 282.0487  78.0130 15.27590381 47283
